{
  "type": "FeatureCollection",
  "features": [
    {
      "type": "Feature",
      "properties": {
        "OBJECT_NAME": "SZ-21 MODULE",
        "OBJECT_ID": "2025-246C",
        "EPOCH": "2025-11-29T19:34:50.983968",
        "MEAN_MOTION": 15.61565337,
        "ECCENTRICITY": 0.0005401,
        "INCLINATION": 41.476,
        "RA_OF_ASC_NODE": 94.8298,
        "ARG_OF_PERICENTER": 181.8397,
        "MEAN_ANOMALY": 178.2423,
        "EPHEMERIS_TYPE": 0,
        "CLASSIFICATION_TYPE": "U",
        "NORAD_CAT_ID": 66515,
        "ELEMENT_SET_NO": 999,
        "REV_AT_EPOCH": 242,
        "BSTAR": 0.00030963,
        "MEAN_MOTION_DOT": 0.00027119,
        "MEAN_MOTION_DDOT": 0,
        "norad_id": 66515,
        "name": "SZ-21 MODULE",
        "group": "stations",
        "longitude_deg": NaN,
        "latitude_deg": NaN,
        "alt_km": NaN,
        "orbit_class": "HEO",
        "timestamp": "2025-11-30T07:29:52.804581+00:00"
      },
      "geometry": {
        "type": "Point",
        "coordinates": [
          NaN,
          NaN
        ]
      }
    },
    {
      "type": "Feature",
      "properties": {
        "OBJECT_NAME": "CZ-2F R/B",
        "OBJECT_ID": "2025-272B",
        "EPOCH": "2025-11-26T11:17:54.506400",
        "MEAN_MOTION": 16.01945612,
        "ECCENTRICITY": 0.01210796,
        "INCLINATION": 41.4431,
        "RA_OF_ASC_NODE": 114.9009,
        "ARG_OF_PERICENTER": 133.7676,
        "MEAN_ANOMALY": 227.3272,
        "EPHEMERIS_TYPE": 0,
        "CLASSIFICATION_TYPE": "U",
        "NORAD_CAT_ID": 66646,
        "ELEMENT_SET_NO": 999,
        "REV_AT_EPOCH": 21,
        "BSTAR": 0.00029319366,
        "MEAN_MOTION_DOT": 0.00449059,
        "MEAN_MOTION_DDOT": 7.567612e-06,
        "norad_id": 66646,
        "name": "CZ-2F R/B",
        "group": "stations",
        "longitude_deg": NaN,
        "latitude_deg": NaN,
        "alt_km": NaN,
        "orbit_class": "HEO",
        "timestamp": "2025-11-30T07:29:52.805020+00:00"
      },
      "geometry": {
        "type": "Point",
        "coordinates": [
          NaN,
          NaN
        ]
      }
    },
    {
      "type": "Feature",
      "properties": {
        "OBJECT_NAME": "SL-4 R/B",
        "OBJECT_ID": "2025-275B",
        "EPOCH": "2025-11-29T08:19:25.067424",
        "MEAN_MOTION": 16.43094745,
        "ECCENTRICITY": 0.0004581,
        "INCLINATION": 51.6501,
        "RA_OF_ASC_NODE": 207.6669,
        "ARG_OF_PERICENTER": 68.9636,
        "MEAN_ANOMALY": 291.1882,
        "EPHEMERIS_TYPE": 0,
        "CLASSIFICATION_TYPE": "U",
        "NORAD_CAT_ID": 66665,
        "ELEMENT_SET_NO": 999,
        "REV_AT_EPOCH": 33,
        "BSTAR": 0.00039285,
        "MEAN_MOTION_DOT": 0.08397088,
        "MEAN_MOTION_DDOT": 1.2512e-05,
        "norad_id": 66665,
        "name": "SL-4 R/B",
        "group": "stations",
        "longitude_deg": NaN,
        "latitude_deg": NaN,
        "alt_km": NaN,
        "orbit_class": "HEO",
        "timestamp": "2025-11-30T07:29:52.805139+00:00"
      },
      "geometry": {
        "type": "Point",
        "coordinates": [
          NaN,
          NaN
        ]
      }
    },
    {
      "type": "Feature",
      "properties": {
        "OBJECT_NAME": "FREGAT DEB",
        "OBJECT_ID": "2011-037PF",
        "EPOCH": "2025-11-29T03:08:01.165920",
        "MEAN_MOTION": 12.34304223,
        "ECCENTRICITY": 0.08705127,
        "INCLINATION": 51.6189,
        "RA_OF_ASC_NODE": 239.6738,
        "ARG_OF_PERICENTER": 194.3628,
        "MEAN_ANOMALY": 163.095,
        "EPHEMERIS_TYPE": 0,
        "CLASSIFICATION_TYPE": "U",
        "NORAD_CAT_ID": 49271,
        "ELEMENT_SET_NO": 999,
        "REV_AT_EPOCH": 20025,
        "BSTAR": 0.015567294,
        "MEAN_MOTION_DOT": 7.028e-05,
        "MEAN_MOTION_DDOT": 0,
        "norad_id": 49271,
        "name": "FREGAT DEB",
        "group": "stations",
        "longitude_deg": NaN,
        "latitude_deg": NaN,
        "alt_km": NaN,
        "orbit_class": "HEO",
        "timestamp": "2025-11-30T07:29:52.805164+00:00"
      },
      "geometry": {
        "type": "Point",
        "coordinates": [
          NaN,
          NaN
        ]
      }
    },
    {
      "type": "Feature",
      "properties": {
        "OBJECT_NAME": "HRC MONOBLOCK CAMERA",
        "OBJECT_ID": "1998-067XR",
        "EPOCH": "2025-11-29T06:29:54.638592",
        "MEAN_MOTION": 15.52902397,
        "ECCENTRICITY": 0.0004608,
        "INCLINATION": 51.6298,
        "RA_OF_ASC_NODE": 208.5998,
        "ARG_OF_PERICENTER": 130.5294,
        "MEAN_ANOMALY": 229.6098,
        "EPHEMERIS_TYPE": 0,
        "CLASSIFICATION_TYPE": "U",
        "NORAD_CAT_ID": 66052,
        "ELEMENT_SET_NO": 999,
        "REV_AT_EPOCH": 674,
        "BSTAR": 0.00054828116,
        "MEAN_MOTION_DOT": 0.00034402,
        "MEAN_MOTION_DDOT": 0,
        "norad_id": 66052,
        "name": "HRC MONOBLOCK CAMERA",
        "group": "stations",
        "longitude_deg": NaN,
        "latitude_deg": NaN,
        "alt_km": NaN,
        "orbit_class": "HEO",
        "timestamp": "2025-11-30T07:29:52.805301+00:00"
      },
      "geometry": {
        "type": "Point",
        "coordinates": [
          NaN,
          NaN
        ]
      }
    }
  ]
}